FENGYUN 1C DEB          
1 30658U 99025APQ 26115.48007031  .00001653  00000+0  12506-2 0  9995
2 30658  98.4231 140.0377 0181353 218.8626 139.9379 13.87824467965390
FENGYUN 1C DEB          
1 30660U 99025APS 26116.26151256  .00006844  00000+0  61198-3 0  9993
2 30660  98.1362 221.4220 0131045 253.8687 160.7238 14.89824048 27860
FENGYUN 1C DEB          
1 30661U 99025APT 26116.50773454  .00000180  00000+0  95134-4 0  9996
2 30661  99.4938 307.2273 0144303  25.8732 334.9567 14.21257078998163
FENGYUN 1C DEB          
1 30662U 99025APU 26114.45133014  .00001999  00000+0  90050-3 0  9991
2 30662  99.0383 179.2710 0032002 248.3342 126.7364 14.23183295985268
FENGYUN 1C DEB          
1 30663U 99025APV 26115.54798719  .00001140  00000+0  87391-3 0  9994
2 30663  99.3024  24.1065 0650286 172.6648 188.4578 13.24214380908181
FENGYUN 1C DEB          
1 30665U 99025APX 26116.39637163  .00002271  00000+0  12118-2 0  9995
2 30665  99.2178  96.8316 0067697 183.3619 338.3033 14.13189816978714
FENGYUN 1C DEB          
1 30666U 99025APY 26116.47372529  .00000728  00000+0  49025-3 0  9990
2 30666  98.8398 101.0119 0061601 128.5229 356.6043 14.02713363979994
FENGYUN 1C DEB          
1 30668U 99025AQA 26115.50170096  .00003146  00000+0  16575-2 0  9990
2 30668  99.1204 196.0735 0078874 228.4088 142.5085 14.13139430979444
FENGYUN 1C DEB          
1 30669U 99025AQB 26116.36519251  .00001772  00000+0  10897-2 0  9990
2 30669  98.6423  51.2551 0117633 157.3762 329.6446 14.03407386973413
FENGYUN 1C DEB          
1 30670U 99025AQC 26116.35518697  .00000147  00000+0  95664-4 0  9996
2 30670  98.6866 162.6212 0039811  44.7046  15.3144 14.15882229990578
FENGYUN 1C DEB          
1 30671U 99025AQD 26115.13946049  .00001171  00000+0  83060-3 0  9992
2 30671  99.2366 185.3121 0125853  30.6934 358.6580 13.95980738970569
FENGYUN 1C DEB          
1 30673U 99025AQF 26116.37031544  .00000511  00000+0  34893-3 0  9993
2 30673  98.8950 167.7778 0052708 127.8031 293.3848 14.03531279984202
FENGYUN 1C DEB          
1 30675U 99025AQH 26115.82153959  .00003147  00000+0  12555-2 0  9997
2 30675  98.7430 200.1782 0053437 137.3942 347.9780 14.28446269988059
FENGYUN 1C DEB          
1 30676U 99025AQJ 26116.45841771  .00001229  00000+0  59516-3 0  9992
2 30676  98.2769 289.8736 0469880  42.7772 320.8964 13.74615849957744
FENGYUN 1C DEB          
1 30677U 99025AQK 26115.59796970  .00003042  00000+0  97101-3 0  9994
2 30677  98.2391 160.5180 0066590 160.4273 352.7660 14.39115803999042
FENGYUN 1C DEB          
1 30678U 99025AQL 26116.38950656  .00005651  00000+0  23147-2 0  9992
2 30678  99.0785  86.8293 0068955 201.7640 311.5468 14.26282394977937
