[{"OBJECT_NAME":"FENGYUN 1C DEB","OBJECT_ID":"1999-025APQ","EPOCH":"2026-04-25T11:31:18.074784","MEAN_MOTION":13.87824467,"ECCENTRICITY":0.01813534,"INCLINATION":98.4231,"RA_OF_ASC_NODE":140.0377,"ARG_OF_PERICENTER":218.8626,"MEAN_ANOMALY":139.9379,"EPHEMERIS_TYPE":0,"CLASSIFICATION_TYPE":"U","NORAD_CAT_ID":30658,"ELEMENT_SET_NO":999,"REV_AT_EPOCH":96539,"BSTAR":0.0012506231,"MEAN_MOTION_DOT":1.653e-5,"MEAN_MOTION_DDOT":0},{"OBJECT_NAME":"FENGYUN 1C DEB","OBJECT_ID":"1999-025APS","EPOCH":"2026-04-26T06:16:34.685184","MEAN_MOTION":14.89824048,"ECCENTRICITY":0.0131045,"INCLINATION":98.1362,"RA_OF_ASC_NODE":221.422,"ARG_OF_PERICENTER":253.8687,"MEAN_ANOMALY":160.7238,"EPHEMERIS_TYPE":0,"CLASSIFICATION_TYPE":"U","NORAD_CAT_ID":30660,"ELEMENT_SET_NO":999,"REV_AT_EPOCH":2786,"BSTAR":0.00061198,"MEAN_MOTION_DOT":6.844e-5,"MEAN_MOTION_DDOT":0},{"OBJECT_NAME":"FENGYUN 1C DEB","OBJECT_ID":"1999-025APT","EPOCH":"2026-04-26T12:11:08.264256","MEAN_MOTION":14.21257078,"ECCENTRICITY":0.0144303,"INCLINATION":99.4938,"RA_OF_ASC_NODE":307.2273,"ARG_OF_PERICENTER":25.8732,"MEAN_ANOMALY":334.9567,"EPHEMERIS_TYPE":0,"CLASSIFICATION_TYPE":"U","NORAD_CAT_ID":30661,"ELEMENT_SET_NO":999,"REV_AT_EPOCH":99816,"BSTAR":9.5134e-5,"MEAN_MOTION_DOT":1.8e-6,"MEAN_MOTION_DDOT":0},{"OBJECT_NAME":"FENGYUN 1C DEB","OBJECT_ID":"1999-025APU","EPOCH":"2026-04-24T10:49:54.924096","MEAN_MOTION":14.23183295,"ECCENTRICITY":0.00320026,"INCLINATION":99.0383,"RA_OF_ASC_NODE":179.271,"ARG_OF_PERICENTER":248.3342,"MEAN_ANOMALY":126.7364,"EPHEMERIS_TYPE":0,"CLASSIFICATION_TYPE":"U","NORAD_CAT_ID":30662,"ELEMENT_SET_NO":999,"REV_AT_EPOCH":98526,"BSTAR":0.00090049599,"MEAN_MOTION_DOT":1.999e-5,"MEAN_MOTION_DDOT":0},{"OBJECT_NAME":"FENGYUN 1C DEB","OBJECT_ID":"1999-025APV","EPOCH":"2026-04-25T13:09:06.093216","MEAN_MOTION":13.2421438,"ECCENTRICITY":0.06502866,"INCLINATION":99.3024,"RA_OF_ASC_NODE":24.1065,"ARG_OF_PERICENTER":172.6648,"MEAN_ANOMALY":188.4578,"EPHEMERIS_TYPE":0,"CLASSIFICATION_TYPE":"U","NORAD_CAT_ID":30663,"ELEMENT_SET_NO":999,"REV_AT_EPOCH":90818,"BSTAR":0.00087390965,"MEAN_MOTION_DOT":1.14e-5,"MEAN_MOTION_DDOT":0},{"OBJECT_NAME":"FENGYUN 1C DEB","OBJECT_ID":"1999-025APX","EPOCH":"2026-04-26T09:30:46.508832","MEAN_MOTION":14.13189816,"ECCENTRICITY":0.0067697,"INCLINATION":99.2178,"RA_OF_ASC_NODE":96.8316,"ARG_OF_PERICENTER":183.3619,"MEAN_ANOMALY":338.3033,"EPHEMERIS_TYPE":0,"CLASSIFICATION_TYPE":"U","NORAD_CAT_ID":30665,"ELEMENT_SET_NO":999,"REV_AT_EPOCH":97871,"BSTAR":0.0012118,"MEAN_MOTION_DOT":2.271e-5,"MEAN_MOTION_DDOT":0},{"OBJECT_NAME":"FENGYUN 1C DEB","OBJECT_ID":"1999-025APY","EPOCH":"2026-04-26T11:22:09.865056","MEAN_MOTION":14.02713363,"ECCENTRICITY":0.0061601,"INCLINATION":98.8398,"RA_OF_ASC_NODE":101.0119,"ARG_OF_PERICENTER":128.5229,"MEAN_ANOMALY":356.6043,"EPHEMERIS_TYPE":0,"CLASSIFICATION_TYPE":"U","NORAD_CAT_ID":30666,"ELEMENT_SET_NO":999,"REV_AT_EPOCH":97999,"BSTAR":0.00049025,"MEAN_MOTION_DOT":7.28e-6,"MEAN_MOTION_DDOT":0},{"OBJECT_NAME":"FENGYUN 1C DEB","OBJECT_ID":"1999-025AQA","EPOCH":"2026-04-25T12:02:26.962944","MEAN_MOTION":14.1313943,"ECCENTRICITY":0.00788745,"INCLINATION":99.1204,"RA_OF_ASC_NODE":196.0735,"ARG_OF_PERICENTER":228.4088,"MEAN_ANOMALY":142.5085,"EPHEMERIS_TYPE":0,"CLASSIFICATION_TYPE":"U","NORAD_CAT_ID":30668,"ELEMENT_SET_NO":999,"REV_AT_EPOCH":97944,"BSTAR":0.0016575479,"MEAN_MOTION_DOT":3.146e-5,"MEAN_MOTION_DDOT":0},{"OBJECT_NAME":"FENGYUN 1C DEB","OBJECT_ID":"1999-025AQB","EPOCH":"2026-04-26T08:45:52.632864","MEAN_MOTION":14.03407386,"ECCENTRICITY":0.0117633,"INCLINATION":98.6423,"RA_OF_ASC_NODE":51.2551,"ARG_OF_PERICENTER":157.3762,"MEAN_ANOMALY":329.6446,"EPHEMERIS_TYPE":0,"CLASSIFICATION_TYPE":"U","NORAD_CAT_ID":30669,"ELEMENT_SET_NO":999,"REV_AT_EPOCH":97341,"BSTAR":0.0010897,"MEAN_MOTION_DOT":1.772e-5,"MEAN_MOTION_DDOT":0},{"OBJECT_NAME":"FENGYUN 1C DEB","OBJECT_ID":"1999-025AQC","EPOCH":"2026-04-26T08:31:28.154208","MEAN_MOTION":14.15882229,"ECCENTRICITY":0.0039811,"INCLINATION":98.6866,"RA_OF_ASC_NODE":162.6212,"ARG_OF_PERICENTER":44.7046,"MEAN_ANOMALY":15.3144,"EPHEMERIS_TYPE":0,"CLASSIFICATION_TYPE":"U","NORAD_CAT_ID":30670,"ELEMENT_SET_NO":999,"REV_AT_EPOCH":99057,"BSTAR":9.5664e-5,"MEAN_MOTION_DOT":1.47e-6,"MEAN_MOTION_DDOT":0},{"OBJECT_NAME":"FENGYUN 1C DEB","OBJECT_ID":"1999-025AQD","EPOCH":"2026-04-25T03:20:49.386336","MEAN_MOTION":13.95980738,"ECCENTRICITY":0.01258538,"INCLINATION":99.2366,"RA_OF_ASC_NODE":185.3121,"ARG_OF_PERICENTER":30.6934,"MEAN_ANOMALY":358.658,"EPHEMERIS_TYPE":0,"CLASSIFICATION_TYPE":"U","NORAD_CAT_ID":30671,"ELEMENT_SET_NO":999,"REV_AT_EPOCH":97056,"BSTAR":0.000830602,"MEAN_MOTION_DOT":1.171e-5,"MEAN_MOTION_DDOT":0},{"OBJECT_NAME":"FENGYUN 1C DEB","OBJECT_ID":"1999-025AQF","EPOCH":"2026-04-26T08:53:15.254016","MEAN_MOTION":14.03531279,"ECCENTRICITY":0.0052708,"INCLINATION":98.895,"RA_OF_ASC_NODE":167.7778,"ARG_OF_PERICENTER":127.8031,"MEAN_ANOMALY":293.3848,"EPHEMERIS_TYPE":0,"CLASSIFICATION_TYPE":"U","NORAD_CAT_ID":30673,"ELEMENT_SET_NO":999,"REV_AT_EPOCH":98420,"BSTAR":0.00034893,"MEAN_MOTION_DOT":5.11e-6,"MEAN_MOTION_DDOT":0},{"OBJECT_NAME":"FENGYUN 1C DEB","OBJECT_ID":"1999-025AQH","EPOCH":"2026-04-25T19:43:01.020576","MEAN_MOTION":14.28446269,"ECCENTRICITY":0.00534373,"INCLINATION":98.743,"RA_OF_ASC_NODE":200.1782,"ARG_OF_PERICENTER":137.3942,"MEAN_ANOMALY":347.978,"EPHEMERIS_TYPE":0,"CLASSIFICATION_TYPE":"U","NORAD_CAT_ID":30675,"ELEMENT_SET_NO":999,"REV_AT_EPOCH":98805,"BSTAR":0.0012554712,"MEAN_MOTION_DOT":3.147e-5,"MEAN_MOTION_DDOT":0},{"OBJECT_NAME":"FENGYUN 1C DEB","OBJECT_ID":"1999-025AQJ","EPOCH":"2026-04-26T11:00:07.290144","MEAN_MOTION":13.74615849,"ECCENTRICITY":0.046988,"INCLINATION":98.2769,"RA_OF_ASC_NODE":289.8736,"ARG_OF_PERICENTER":42.7772,"MEAN_ANOMALY":320.8964,"EPHEMERIS_TYPE":0,"CLASSIFICATION_TYPE":"U","NORAD_CAT_ID":30676,"ELEMENT_SET_NO":999,"REV_AT_EPOCH":95774,"BSTAR":0.00059516,"MEAN_MOTION_DOT":1.229e-5,"MEAN_MOTION_DDOT":0},{"OBJECT_NAME":"FENGYUN 1C DEB","OBJECT_ID":"1999-025AQK","EPOCH":"2026-04-25T14:21:04.582080","MEAN_MOTION":14.39115803,"ECCENTRICITY":0.00665907,"INCLINATION":98.2391,"RA_OF_ASC_NODE":160.518,"ARG_OF_PERICENTER":160.4273,"MEAN_ANOMALY":352.766,"EPHEMERIS_TYPE":0,"CLASSIFICATION_TYPE":"U","NORAD_CAT_ID":30677,"ELEMENT_SET_NO":999,"REV_AT_EPOCH":99904,"BSTAR":0.00097100537,"MEAN_MOTION_DOT":3.042e-5,"MEAN_MOTION_DDOT":0},{"OBJECT_NAME":"FENGYUN 1C DEB","OBJECT_ID":"1999-025AQL","EPOCH":"2026-04-26T09:20:53.366784","MEAN_MOTION":14.26282394,"ECCENTRICITY":0.0068955,"INCLINATION":99.0785,"RA_OF_ASC_NODE":86.8293,"ARG_OF_PERICENTER":201.764,"MEAN_ANOMALY":311.5468,"EPHEMERIS_TYPE":0,"CLASSIFICATION_TYPE":"U","NORAD_CAT_ID":30678,"ELEMENT_SET_NO":999,"REV_AT_EPOCH":97793,"BSTAR":0.0023147,"MEAN_MOTION_DOT":5.651e-5,"MEAN_MOTION_DDOT":0}]
